ORBCOMM FM24 [-]        
1 25478U 98053D   24011.69872134  .00001266  00000+0  48863-3 0  9995
2 25478  45.0074 220.3540 0001502 118.7500 241.3498 14.35099304322314
ORBCOMM FM25 [-]        
1 25479U 98053E   24011.66356932  .00001281  00000+0  49420-3 0  9993
2 25479  45.0066 218.7572 0003855 143.9437 216.1671 14.35080241322609
ORBCOMM FM26 [-]        
1 25480U 98053F   24011.90562839  .00001204  00000+0  47179-3 0  9991
2 25480  45.0061 211.2666 0005819 170.2876 189.8084 14.34605150322582
ORBCOMM FM27 [+]        
1 25481U 98053G   24011.92832976  .00001416  00000+0  54120-3 0  9995
2 25481  45.0050 217.7686 0000329  27.9041 332.1824 14.35060553322574
ORBCOMM FM28 [-]        
1 25482U 98053H   24011.81367108  .00001727  00000+0  64307-3 0  9997
2 25482  45.0054 157.1925 0005000 199.5488 160.5168 14.35527571323229
ORBCOMM FM30 [-]        
1 25980U 99065A   24010.97400392  .00001424  00000+0  54729-3 0  9994
2 25980  45.0334  41.0700 0008169 269.6367  90.3545 14.34744052259242
ORBCOMM FM31 [-]        
1 25981U 99065B   24011.91515253  .00001494  00000+0  57149-3 0  9999
2 25981  45.0250  30.4194 0005270 289.8607  70.1672 14.34760710258931
ORBCOMM FM32 [+]        
1 25982U 99065C   24011.88046716  .00001503  00000+0  58641-3 0  9998
2 25982  45.0178  43.5173 0007417 291.6251  68.3805 14.33737654259572
